[{"OBJECT_NAME":"NUSAT-48 (HENRIETTA LEAVITT)","OBJECT_ID":"2024-149AG","EPOCH":"2026-03-09T19:19:17.269536","MEAN_MOTION":15.29812597,"ECCENTRICITY":0.00027538,"INCLINATION":97.3923,"RA_OF_ASC_NODE":150.8264,"ARG_OF_PERICENTER":263.3026,"MEAN_ANOMALY":96.7901,"EPHEMERIS_TYPE":0,"CLASSIFICATION_TYPE":"U","NORAD_CAT_ID":60498,"ELEMENT_SET_NO":999,"REV_AT_EPOCH":8694,"BSTAR":0.00045211745,"MEAN_MOTION_DOT":0.00012988,"MEAN_MOTION_DDOT":0},{"OBJECT_NAME":"STARLINK-34304","OBJECT_ID":"2025-117X","EPOCH":"2026-03-09T22:17:23.165376","MEAN_MOTION":15.30226831,"ECCENTRICITY":0.00020676,"INCLINATION":53.1606,"RA_OF_ASC_NODE":38.3954,"ARG_OF_PERICENTER":95.6566,"MEAN_ANOMALY":264.4671,"EPHEMERIS_TYPE":0,"CLASSIFICATION_TYPE":"U","NORAD_CAT_ID":64224,"ELEMENT_SET_NO":999,"REV_AT_EPOCH":4459,"BSTAR":0.0014177818,"MEAN_MOTION_DOT":0.00041904,"MEAN_MOTION_DDOT":0}]
